CCSDS_OMM_VERS,COMMENT,CREATION_DATE,ORIGINATOR,OBJECT_NAME,OBJECT_ID,CENTER_NAME,REF_FRAME,TIME_SYSTEM,MEAN_ELEMENT_THEORY,EPOCH,MEAN_MOTION,ECCENTRICITY,INCLINATION,RA_OF_ASC_NODE,ARG_OF_PERICENTER,MEAN_ANOMALY,EPHEMERIS_TYPE,CLASSIFICATION_TYPE,NORAD_CAT_ID,ELEMENT_SET_NO,REV_AT_EPOCH,BSTAR,MEAN_MOTION_DOT,MEAN_MOTION_DDOT,SEMIMAJOR_AXIS,PERIOD,APOAPSIS,PERIAPSIS,OBJECT_TYPE,RCS_SIZE,COUNTRY_CODE,LAUNCH_DATE,SITE,DECAY_DATE,FILE,GP_ID,TLE_LINE0,TLE_LINE1,TLE_LINE2
"2.0","GENERATED VIA SPACE-TRACK.ORG API","2019-07-30T15:00:12","18 SPCS","AEOLUS","2018-066A","EARTH","TEME","UTC","SGP4","2019-07-30T11:57:36.512064","15.86923917","0.00026240","96.7204","217.7061","83.8186","42.7938","0","U","43600","999","5415","0.00006607200000","0.00016772","0.0000000000000","6689.049","90.741","312.670","309.159","PAYLOAD","LARGE","ESA","2018-08-22","FRGUI","","2520172","135922361","0 AEOLUS","1 43600U 18066A   19211.49833926  .00016772  00000-0  66072-4 0  9990","2 43600  96.7204 217.7061 0002624  83.8186  42.7938 15.86923917 54154"
"2.0","GENERATED VIA SPACE-TRACK.ORG API","2019-07-30T23:00:14","18 SPCS","AEOLUS","2018-066A","EARTH","TEME","UTC","SGP4","2019-07-30T13:26:25.401408","15.86925505","0.00026250","96.7207","217.7670","84.6922","34.0325","0","U","43600","999","5416","0.00006568500000","0.00016674","0.0000000000000","6689.045","90.741","312.666","309.154","PAYLOAD","LARGE","ESA","2018-08-22","FRGUI","","2520295","135963134","0 AEOLUS","1 43600U 18066A   19211.56001622  .00016674  00000-0  65685-4 0  9998","2 43600  96.7207 217.7670 0002625  84.6922  34.0325 15.86925505 54161"
"2.0","GENERATED VIA SPACE-TRACK.ORG API","2019-07-30T22:20:15","18 SPCS","STARLINK","2019-029AC","EARTH","TEME","UTC","SGP4","2019-07-30T13:35:09.660192","15.05497941","0.00010390","52.9998","229.2770","194.9794","165.1163","0","U","44261","999","1032","0.00000373800000","-0.00000225","0.0000000000000","6928.114","95.649","550.699","549.259","PAYLOAD","LARGE","US","2019-05-24","AFETR","","2520240","135961551","0 STARLINK","1 44261U 19029AC  19211.56608403 -.00000225  00000-0  37380-5 0  9990","2 44261  52.9998 229.2770 0001039 194.9794 165.1163 15.05497941 10320"
"2.0","GENERATED VIA SPACE-TRACK.ORG API","2019-07-31T06:50:14","18 SPCS","AEOLUS","2018-066A","EARTH","TEME","UTC","SGP4","2019-07-31T01:11:04.552800","15.86935647","0.00023160","96.7182","218.2505","88.6476","303.7324","0","U","43600","999","5424","0.00005929000000","0.00015042","0.0000000000000","6689.016","90.740","312.431","309.332","PAYLOAD","LARGE","ESA","2018-08-22","FRGUI","","2520395","136022415","0 AEOLUS","1 43600U 18066A   19212.04935825  .00015042  00000-0  59290-4 0  9996","2 43600  96.7182 218.2505 0002316  88.6476 303.7324 15.86935647 54243"
"2.0","GENERATED VIA SPACE-TRACK.ORG API","2019-07-31T15:30:12","18 SPCS","AEOLUS","2018-066A","EARTH","TEME","UTC","SGP4","2019-07-31T12:18:12.091680","15.86951982","0.00022650","96.7180","218.7085","91.0547","66.2397","0","U","43600","999","5431","0.00006150400000","0.00015622","0.0000000000000","6688.971","90.739","312.351","309.321","PAYLOAD","LARGE","ESA","2018-08-22","FRGUI","","2520552","136025607","0 AEOLUS","1 43600U 18066A   19212.51263995  .00015622  00000-0  61504-4 0  9995","2 43600  96.7180 218.7085 0002265  91.0547  66.2397 15.86951982 54318"
"2.0","GENERATED VIA SPACE-TRACK.ORG API","2019-08-01T04:59:31","18 SPCS","STARLINK","2019-029AC","EARTH","TEME","UTC","SGP4","2019-07-31T13:29:06.177120","15.05498592","0.00009260","52.9999","224.8073","199.5644","160.5308","0","U","44261","999","953","0.00000052140000","-0.00000271","0.0000000000000","6928.112","95.649","550.619","549.336","PAYLOAD","LARGE","US","2019-05-24","AFETR","","2520806","136068637","0 STARLINK","1 44261U 19029AC  19212.56187705 -.00000271 +00000-0 +52140-6 0  9991","2 44261 052.9999 224.8073 0000926 199.5644 160.5308 15.05498592009531"
"2.0","GENERATED VIA SPACE-TRACK.ORG API","2019-07-31T23:00:18","18 SPCS","AEOLUS","2018-066A","EARTH","TEME","UTC","SGP4","2019-07-31T13:47:58.443936","15.86954301","0.00023030","96.7177","218.7696","91.9934","61.2197","0","U","43600","999","5432","0.00006179800000","0.00015699","0.0000000000000","6688.964","90.739","312.370","309.289","PAYLOAD","LARGE","ESA","2018-08-22","FRGUI","","2520748","136049155","0 AEOLUS","1 43600U 18066A   19212.57498199  .00015699  00000-0  61798-4 0  9996","2 43600  96.7177 218.7696 0002303  91.9934  61.2197 15.86954301 54326"
"2.0","GENERATED VIA SPACE-TRACK.ORG API","2019-08-01T04:59:31","18 SPCS","AEOLUS","2018-066A","EARTH","TEME","UTC","SGP4","2019-07-31T22:29:15.428832","15.86967916","0.00023460","96.7169","219.1267","93.2265","326.7147","0","U","43600","999","5438","0.00006313300000","0.00016053","0.0000000000000","6688.926","90.739","312.360","309.222","PAYLOAD","LARGE","ESA","2018-08-22","FRGUI","","2520806","136068082","0 AEOLUS","1 43600U 18066A   19212.93698413 +.00016053 +00000-0 +63133-4 0  9997","2 43600 096.7169 219.1267 0002346 093.2265 326.7147 15.86967916054381"
"2.0","GENERATED VIA SPACE-TRACK.ORG API","2019-08-01T11:40:15","18 SPCS","AEOLUS","2018-066A","EARTH","TEME","UTC","SGP4","2019-08-01T02:56:44.765376","15.86974483","0.00023760","96.7162","219.3097","88.4102","312.0454","0","U","43600","999","5441","0.00006351900000","0.00016157","0.0000000000000","6688.907","90.738","312.362","309.183","PAYLOAD","LARGE","ESA","2018-08-22","FRGUI","","2520980","136091931","0 AEOLUS","1 43600U 18066A   19213.12274034  .00016157  00000-0  63519-4 0  9991","2 43600  96.7162 219.3097 0002376  88.4102 312.0454 15.86974483 54416"
"2.0","GENERATED VIA SPACE-TRACK.ORG API","2019-08-02T15:25:34","18 SPCS","STARLINK","2019-029AC","EARTH","TEME","UTC","SGP4","2019-08-01T11:47:26.900448","15.05498896","0.00008290","52.9999","220.6356","204.2647","155.8302","0","U","44261","999","967","-0.00000233130000","-0.00000313","0.0000000000000","6928.111","95.649","550.551","549.402","PAYLOAD","LARGE","US","2019-05-24","AFETR","","2521596","136142149","0 STARLINK","1 44261U 19029AC  19213.49128357 -.00000313 +00000-0 -23313-5 0  9999","2 44261 052.9999 220.6356 0000829 204.2647 155.8302 15.05498896009671"
"2.0","GENERATED VIA SPACE-TRACK.ORG API","2019-08-01T20:40:16","18 SPCS","AEOLUS","2018-066A","EARTH","TEME","UTC","SGP4","2019-08-01T15:27:41.301792","15.86999466","0.00027710","96.7170","219.8239","91.0760","46.6845","0","U","43600","999","5449","0.00007278200000","0.00018562","0.0000000000000","6688.837","90.737","312.556","308.849","PAYLOAD","LARGE","ESA","2018-08-22","FRGUI","","2521158","136115340","0 AEOLUS","1 43600U 18066A   19213.64422803  .00018562  00000-0  72782-4 0  9991","2 43600  96.7170 219.8239 0002771  91.0760  46.6845 15.86999466 54497"
"2.0","GENERATED VIA SPACE-TRACK.ORG API","2019-08-02T00:20:11","18 SPCS","AEOLUS","2018-066A","EARTH","TEME","UTC","SGP4","2019-08-02T00:11:40.941600","15.86622167","0.00047480","96.7157","220.1836","98.6998","316.1163","0","U","43600","999","5455","-0.00089812000000","-0.00220933","0.0000000000000","6689.898","90.758","314.939","308.586","PAYLOAD","LARGE","ESA","2018-08-22","FRGUI","","2521296","136116830","0 AEOLUS","1 43600U 18066A   19214.00811275 -.00220933  00000-0 -89812-3 0  9997","2 43600  96.7157 220.1836 0004748  98.6998 316.1163 15.86622167 54558"
"2.0","GENERATED VIA SPACE-TRACK.ORG API","2019-08-02T06:20:14","18 SPCS","STARLINK","2019-029AC","EARTH","TEME","UTC","SGP4","2019-08-02T03:43:24.570336","15.05498885","0.00007940","53.0000","217.6556","207.9855","152.1090","0","U","44261","999","1071","-0.00000333600000","-0.00000327","0.0000000000000","6928.111","95.649","550.526","549.426","PAYLOAD","LARGE","US","2019-05-24","AFETR","","2521340","136117231","0 STARLINK","1 44261U 19029AC  19214.15514549 -.00000327  00000-0 -33360-5 0  9993","2 44261  53.0000 217.6556 0000794 207.9855 152.1090 15.05498885 10715"
"2.0","GENERATED VIA SPACE-TRACK.ORG API","2019-08-03T04:31:45","18 SPCS","STARLINK","2019-029AC","EARTH","TEME","UTC","SGP4","2019-08-02T11:41:23.349984","15.05500109","0.00007630","52.9999","216.1657","210.6288","149.4656","0","U","44261","999","982","-0.00000289730000","-0.00000321","0.0000000000000","6928.107","95.649","550.501","549.444","PAYLOAD","LARGE","US","2019-05-24","AFETR","","2521789","136184268","0 STARLINK","1 44261U 19029AC  19214.48707581 -.00000321 +00000-0 -28973-5 0  9997","2 44261 052.9999 216.1657 0000763 210.6288 149.4656 15.05500109009823"
"2.0","GENERATED VIA SPACE-TRACK.ORG API","2019-08-03T14:20:13","18 SPCS","STARLINK","2019-029AC","EARTH","TEME","UTC","SGP4","2019-08-03T11:35:19.819392","15.05500337","0.00006680","52.9999","211.6961","216.3076","143.7866","0","U","44261","999","1091","-0.00000066694000","-0.00000288","0.0000000000000","6928.107","95.649","550.435","549.509","PAYLOAD","LARGE","US","2019-05-24","AFETR","","2522052","136189505","0 STARLINK","1 44261U 19029AC  19215.48286828 -.00000288  00000-0 -66694-6 0  9999","2 44261  52.9999 211.6961 0000668 216.3076 143.7866 15.05500337 10918"
"2.0","GENERATED VIA SPACE-TRACK.ORG API","2019-08-03T21:40:11","18 SPCS","AEOLUS","2018-066A","EARTH","TEME","UTC","SGP4","2019-08-03T20:09:40.059936","15.86708955","0.00037800","96.7186","221.9849","96.8821","334.9325","0","U","43600","999","5484","0.00000421290000","0.00000929","0.0000000000000","6689.654","90.753","314.047","308.990","PAYLOAD","LARGE","ESA","2018-08-22","FRGUI","","2522220","136193639","0 AEOLUS","1 43600U 18066A   19215.84004699  .00000929  00000-0  42129-5 0  9995","2 43600  96.7186 221.9849 0003780  96.8821 334.9325 15.86708955 54843"
